start=new Date('2022-01-12T00:00:00.000Z').valueOf();
sats=[{"PERIOD":"95.593","EPHEMERIS_TYPE":"0","REV_AT_EPOCH":"8988","NORAD_CAT_ID":"45705","MEAN_MOTION_DDOT":"0.0000000000000","DECAY_DATE":null,"RCS_SIZE":"LARGE","TLE_LINE1":"1 45705U 20035BA  22011.42232572 -.00001634  00000-0 -90835-4 0  9999","OBJECT_ID":"2020-035BA","OBJECT_TYPE":"PAYLOAD","FILE":"3269657","CLASSIFICATION_TYPE":"U","ELEMENT_SET_NO":"999","MEAN_ANOMALY":"286.6290","CENTER_NAME":"EARTH","SITE":"AFETR","BSTAR":"-0.00009083500000","TLE_LINE2":"2 45705  53.0545  42.3918 0001617  73.4877 286.6290 15.06392747 89883","EPOCH":"2022-01-11T10:08:08.942208","LAUNCH_DATE":"2020-06-04","REF_FRAME":"TEME","ECCENTRICITY":"0.00016170","COUNTRY_CODE":"US","MEAN_MOTION_DOT":"-0.00001634","GP_ID":"193661716","INCLINATION":"53.0545","MEAN_ELEMENT_THEORY":"SGP4","ARG_OF_PERICENTER":"73.4877","APOAPSIS":"548.356","MEAN_MOTION":"15.06392747","RA_OF_ASC_NODE":"42.3918","TIME_SYSTEM":"UTC","PERIAPSIS":"546.116","OBJECT_NAME":"STARLINK-1410","SEMIMAJOR_AXIS":"6925.371"},{"PERIOD":"95.593","EPHEMERIS_TYPE":"0","REV_AT_EPOCH":"9030","NORAD_CAT_ID":"45706","MEAN_MOTION_DDOT":"0.0000000000000","DECAY_DATE":null,"RCS_SIZE":"LARGE","TLE_LINE1":"1 45706U 20035BB  22011.41402755  .00000080  00000-0  24297-4 0  9992","OBJECT_ID":"2020-035BB","OBJECT_TYPE":"PAYLOAD","FILE":"3269657","ELEMENT_SET_NO":"999","CLASSIFICATION_TYPE":"U","MEAN_ANOMALY":"291.1543","SITE":"AFETR","CENTER_NAME":"EARTH","BSTAR":"0.00002429700000","TLE_LINE2":"2 45706  53.0555  12.4215 0001576  68.9615 291.1543 15.06390537 90302","EPOCH":"2022-01-11T09:56:11.980320","LAUNCH_DATE":"2020-06-04","REF_FRAME":"TEME","ECCENTRICITY":"0.00015760","MEAN_MOTION_DOT":"0.00000080","COUNTRY_CODE":"US","GP_ID":"193659965","INCLINATION":"53.0555","MEAN_ELEMENT_THEORY":"SGP4","ARG_OF_PERICENTER":"68.9615","APOAPSIS":"548.334","RA_OF_ASC_NODE":"12.4215","MEAN_MOTION":"15.06390537","TIME_SYSTEM":"UTC","PERIAPSIS":"546.151","OBJECT_NAME":"STARLINK-1411","SEMIMAJOR_AXIS":"6925.378"},{"SEMIMAJOR_AXIS":"6925.342","TIME_SYSTEM":"UTC","OBJECT_NAME":"STARLINK-1412","PERIAPSIS":"546.148","RA_OF_ASC_NODE":"12.4426","APOAPSIS":"548.266","MEAN_MOTION":"15.06402035","INCLINATION":"53.0561","MEAN_ELEMENT_THEORY":"SGP4","ARG_OF_PERICENTER":"73.8248","GP_ID":"193660715","MEAN_MOTION_DOT":"0.00000272","COUNTRY_CODE":"US","REF_FRAME":"TEME","ECCENTRICITY":"0.00015290","EPOCH":"2022-01-11T09:50:53.696544","LAUNCH_DATE":"2020-06-04","BSTAR":"0.00003715300000","TLE_LINE2":"2 45707  53.0561  12.4426 0001529  73.8248 286.2909 15.06402035 90318","ELEMENT_SET_NO":"999","CLASSIFICATION_TYPE":"U","MEAN_ANOMALY":"286.2909","SITE":"AFETR","CENTER_NAME":"EARTH","OBJECT_ID":"2020-035BC","OBJECT_TYPE":"PAYLOAD","FILE":"3269657","MEAN_MOTION_DDOT":"0.0000000000000","DECAY_DATE":null,"TLE_LINE1":"1 45707U 20035BC  22011.41034371  .00000272  00000-0  37153-4 0  9996","RCS_SIZE":"LARGE","PERIOD":"95.592","EPHEMERIS_TYPE":"0","REV_AT_EPOCH":"9031","NORAD_CAT_ID":"45707"},{"OBJECT_ID":"2020-035BD","OBJECT_TYPE":"PAYLOAD","FILE":"3269987","PERIOD":"95.592","EPHEMERIS_TYPE":"0","NORAD_CAT_ID":"45708","REV_AT_EPOCH":"9036","MEAN_MOTION_DDOT":"0.0000000000000","DECAY_DATE":null,"TLE_LINE1":"1 45708U 20035BD  22011.71627764  .00000380  00000-0  44424-4 0  9993","RCS_SIZE":"LARGE","BSTAR":"0.00004442400000","TLE_LINE2":"2 45708  53.0551  11.0681 0001529  70.1297 289.9856 15.06394843 90363","EPOCH":"2022-01-11T17:11:26.388096","LAUNCH_DATE":"2020-06-04","ELEMENT_SET_NO":"999","CLASSIFICATION_TYPE":"U","MEAN_ANOMALY":"289.9856","SITE":"AFETR","CENTER_NAME":"EARTH","GP_ID":"193690763","INCLINATION":"53.0551","MEAN_ELEMENT_THEORY":"SGP4","ARG_OF_PERICENTER":"70.1297","REF_FRAME":"TEME","ECCENTRICITY":"0.00015290","MEAN_MOTION_DOT":"0.00000380","COUNTRY_CODE":"US","TIME_SYSTEM":"UTC","PERIAPSIS":"546.170","OBJECT_NAME":"STARLINK-1418","SEMIMAJOR_AXIS":"6925.364","MEAN_MOTION":"15.06394843","APOAPSIS":"548.288","RA_OF_ASC_NODE":"11.0681"},{"OBJECT_ID":"2020-035BE","OBJECT_TYPE":"PAYLOAD","FILE":"3269987","DECAY_DATE":null,"MEAN_MOTION_DDOT":"0.0000000000000","TLE_LINE1":"1 45709U 20035BE  22011.68678797  .00000304  00000-0  39321-4 0  9998","RCS_SIZE":"LARGE","PERIOD":"95.592","EPHEMERIS_TYPE":"0","REV_AT_EPOCH":"9031","NORAD_CAT_ID":"45709","EPOCH":"2022-01-11T16:28:58.480608","LAUNCH_DATE":"2020-06-04","BSTAR":"0.00003932100000","TLE_LINE2":"2 45709  53.0562  11.1941 0001483  66.2988 293.8157 15.06400791 90311","CLASSIFICATION_TYPE":"U","ELEMENT_SET_NO":"999","MEAN_ANOMALY":"293.8157","SITE":"AFETR","CENTER_NAME":"EARTH","INCLINATION":"53.0562","MEAN_ELEMENT_THEORY":"SGP4","ARG_OF_PERICENTER":"66.2988","GP_ID":"193691020","MEAN_MOTION_DOT":"0.00000304","COUNTRY_CODE":"US","REF_FRAME":"TEME","ECCENTRICITY":"0.00014830","SEMIMAJOR_AXIS":"6925.346","TIME_SYSTEM":"UTC","PERIAPSIS":"546.184","OBJECT_NAME":"STARLINK-1421","RA_OF_ASC_NODE":"11.1941","APOAPSIS":"548.238","MEAN_MOTION":"15.06400791"},{"DECAY_DATE":null,"MEAN_MOTION_DDOT":"0.0000000000000","TLE_LINE1":"1 45710U 20035BF  22011.68310068  .00000121  00000-0  27020-4 0  9994","RCS_SIZE":"LARGE","EPHEMERIS_TYPE":"0","REV_AT_EPOCH":"9035","NORAD_CAT_ID":"45710","PERIOD":"95.592","FILE":"3269987","OBJECT_ID":"2020-035BF","OBJECT_TYPE":"PAYLOAD","CENTER_NAME":"EARTH","SITE":"AFETR","CLASSIFICATION_TYPE":"U","ELEMENT_SET_NO":"999","MEAN_ANOMALY":"301.5683","LAUNCH_DATE":"2020-06-04","EPOCH":"2022-01-11T16:23:39.898752","BSTAR":"0.00002702000000","TLE_LINE2":"2 45710  53.0542  11.2142 0001435  58.5446 301.5683 15.06394486 90353","MEAN_MOTION_DOT":"0.00000121","COUNTRY_CODE":"US","ECCENTRICITY":"0.00014350","REF_FRAME":"TEME","MEAN_ELEMENT_THEORY":"SGP4","ARG_OF_PERICENTER":"58.5446","INCLINATION":"53.0542","GP_ID":"193691264","RA_OF_ASC_NODE":"11.2142","APOAPSIS":"548.224","MEAN_MOTION":"15.06394486","SEMIMAJOR_AXIS":"6925.365","OBJECT_NAME":"STARLINK-1423","PERIAPSIS":"546.237","TIME_SYSTEM":"UTC"},{"SEMIMAJOR_AXIS":"6925.378","PERIAPSIS":"545.977","OBJECT_NAME":"STARLINK-1433","TIME_SYSTEM":"UTC","APOAPSIS":"548.509","MEAN_MOTION":"15.06390247","RA_OF_ASC_NODE":"11.0056","MEAN_ELEMENT_THEORY":"SGP4","ARG_OF_PERICENTER":"62.3272","INCLINATION":"53.0542","GP_ID":"193690519","MEAN_MOTION_DOT":"-0.00002927","COUNTRY_CODE":"US","ECCENTRICITY":"0.00018280","REF_FRAME":"TEME","LAUNCH_DATE":"2020-06-04","EPOCH":"2022-01-11T17:32:40.069248","BSTAR":"-0.00017772000000","TLE_LINE2":"2 45711  53.0542  11.0056 0001828  62.3272 297.7903 15.06390247 90354","CENTER_NAME":"EARTH","SITE":"AFETR","ELEMENT_SET_NO":"999","CLASSIFICATION_TYPE":"U","MEAN_ANOMALY":"297.7903","FILE":"3269987","OBJECT_ID":"2020-035BG","OBJECT_TYPE":"PAYLOAD","DECAY_DATE":null,"MEAN_MOTION_DDOT":"0.0000000000000","TLE_LINE1":"1 45711U 20035BG  22011.73101932 -.00002927  00000-0 -17772-3 0  9999","RCS_SIZE":"LARGE","EPHEMERIS_TYPE":"0","NORAD_CAT_ID":"45711","REV_AT_EPOCH":"9035","PERIOD":"95.593"},{"OBJECT_TYPE":"PAYLOAD","OBJECT_ID":"2020-035BH","FILE":"3269987","RCS_SIZE":"LARGE","TLE_LINE1":"1 45712U 20035BH  22011.72731835  .00008959  00000-0  61908-3 0  9999","DECAY_DATE":null,"MEAN_MOTION_DDOT":"0.0000000000000","PERIOD":"95.590","REV_AT_EPOCH":"9036","NORAD_CAT_ID":"45712","EPHEMERIS_TYPE":"0","EPOCH":"2022-01-11T17:27:20.305440","LAUNCH_DATE":"2020-06-04","TLE_LINE2":"2 45712  53.0549  11.0233 0001415  72.9450 287.1694 15.06430888 90363","BSTAR":"0.00061908000000","MEAN_ANOMALY":"287.1694","ELEMENT_SET_NO":"999","CLASSIFICATION_TYPE":"U","CENTER_NAME":"EARTH","SITE":"AFETR","INCLINATION":"53.0549","ARG_OF_PERICENTER":"72.9450","MEAN_ELEMENT_THEORY":"SGP4","GP_ID":"193690264","MEAN_MOTION_DOT":"0.00008959","COUNTRY_CODE":"US","REF_FRAME":"TEME","ECCENTRICITY":"0.00014150","SEMIMAJOR_AXIS":"6925.254","TIME_SYSTEM":"UTC","OBJECT_NAME":"STARLINK-1434","PERIAPSIS":"546.139","RA_OF_ASC_NODE":"11.0233","APOAPSIS":"548.099","MEAN_MOTION":"15.06430888"},{"BSTAR":"0.00007817500000","TLE_LINE2":"2 45713  53.0547  30.9294 0001475  69.0640 291.0507 15.06402130 90077","EPOCH":"2022-01-11T17:56:32.490528","LAUNCH_DATE":"2020-06-04","ELEMENT_SET_NO":"999","CLASSIFICATION_TYPE":"U","MEAN_ANOMALY":"291.0507","CENTER_NAME":"EARTH","SITE":"AFETR","OBJECT_ID":"2020-035BJ","OBJECT_TYPE":"PAYLOAD","FILE":"3269987","PERIOD":"95.592","EPHEMERIS_TYPE":"0","NORAD_CAT_ID":"45713","REV_AT_EPOCH":"9007","DECAY_DATE":null,"MEAN_MOTION_DDOT":"0.0000000000000","TLE_LINE1":"1 45713U 20035BJ  22011.74759827  .00000883  00000-0  78175-4 0  9996","RCS_SIZE":"LARGE","TIME_SYSTEM":"UTC","OBJECT_NAME":"STARLINK-1436","PERIAPSIS":"546.186","SEMIMAJOR_AXIS":"6925.342","APOAPSIS":"548.229","RA_OF_ASC_NODE":"30.9294","MEAN_MOTION":"15.06402130","GP_ID":"193691520","INCLINATION":"53.0547","MEAN_ELEMENT_THEORY":"SGP4","ARG_OF_PERICENTER":"69.0640","REF_FRAME":"TEME","ECCENTRICITY":"0.00014750","COUNTRY_CODE":"US","MEAN_MOTION_DOT":"0.00000883"},{"REF_FRAME":"TEME","ECCENTRICITY":"0.00016200","MEAN_MOTION_DOT":"0.00000488","COUNTRY_CODE":"US","GP_ID":"193659966","INCLINATION":"53.0552","ARG_OF_PERICENTER":"72.7767","MEAN_ELEMENT_THEORY":"SGP4","RA_OF_ASC_NODE":"12.1653","APOAPSIS":"548.338","MEAN_MOTION":"15.06399230","TIME_SYSTEM":"UTC","PERIAPSIS":"546.094","OBJECT_NAME":"STARLINK-1437","SEMIMAJOR_AXIS":"6925.351","PERIOD":"95.592","NORAD_CAT_ID":"45714","REV_AT_EPOCH":"9032","EPHEMERIS_TYPE":"0","RCS_SIZE":"LARGE","TLE_LINE1":"1 45714U 20035BK  22011.47300869  .00000488  00000-0  51666-4 0  9992","MEAN_MOTION_DDOT":"0.0000000000000","DECAY_DATE":null,"OBJECT_TYPE":"PAYLOAD","OBJECT_ID":"2020-035BK","FILE":"3269657","MEAN_ANOMALY":"287.3399","ELEMENT_SET_NO":"999","CLASSIFICATION_TYPE":"U","CENTER_NAME":"EARTH","SITE":"AFETR","TLE_LINE2":"2 45714  53.0552  12.1653 0001620  72.7767 287.3399 15.06399230 90329","BSTAR":"0.00005166600000","EPOCH":"2022-01-11T11:21:07.950816","LAUNCH_DATE":"2020-06-04"}];
